IRNSS-1A----------------
1 39199U 13034A   19040.75109308  .00000089  00000-0  00000+0 0  9995
2 39199  29.8812 104.8178 0022116 186.8500 173.3473  1.00277460 20739
IRNSS-1B----------------
1 39635U 14017A   19040.75109308  .00000101  00000-0  00000+0 0  9997
2 39635  28.7497 285.2582 0017621 178.2229   1.4394  1.00272442 17882
IRNSS-1C----------------
1 40269U 14061A   19041.11564870 -.00000160  00000-0  00000+0 0  9997
2 40269   2.0690 218.0212 0019380   9.3624  37.0980  1.00274956 15918
IRNSS-1D----------------
1 40547U 15018A   19039.95858694 -.00000283  00000-0  00000+0 0  9994
2 40547  28.6789 285.3713 0019060 179.8786 130.2986  1.00279002 14312
IRNSS-1E----------------
1 41241U 16003A   19040.57410411 -.00000294  00000-0  00000-0 0  9995
2 41241  29.0317 104.4186 0022065 184.5464 168.9276  1.00273868 11160
IRNSS-1F----------------
1 41384U 16015A   19040.89023448  .00000160  00000-0  00000-0 0  9992
2 41384   2.9538 245.8690 0020179 176.0620  70.7106  1.00276709 10772
IRNSS-1G----------------
1 41469U 16027A   19040.90884789 -.00000334  00000-0  00000-0 0  9998
2 41469   3.0072 247.9430 0003366 178.3294 170.1545  1.00274493 10272
IRNSS-1I----------------
1 43286U 18035A   19040.77479841  .00000097  00000-0  00000+0 0  9996
2 43286  29.0280 117.8333 0021557 186.1245 169.5332  1.00274826  3157
